#dV2023  2 18 22  0  0.00000000    1682       CTS   FIT  GFZ
## 2249 597600.00000000    30.00000000 59993 0.9166666666667
+    1   L65  0  0  0  0  0  0  0  0  0  0  0  0  0  0  0  0
+          0  0  0  0  0  0  0  0  0  0  0  0  0  0  0  0  0
+          0  0  0  0  0  0  0  0  0  0  0  0  0  0  0  0  0
+          0  0  0  0  0  0  0  0  0  0  0  0  0  0  0  0  0
+          0  0  0  0  0  0  0  0  0  0  0  0  0  0  0  0  0
++         0  0  0  0  0  0  0  0  0  0  0  0  0  0  0  0  0
++         0  0  0  0  0  0  0  0  0  0  0  0  0  0  0  0  0
++         0  0  0  0  0  0  0  0  0  0  0  0  0  0  0  0  0
++         0  0  0  0  0  0  0  0  0  0  0  0  0  0  0  0  0
++         0  0  0  0  0  0  0  0  0  0  0  0  0  0  0  0  0
%c L  cc GPS ccc cccc cccc cccc cccc ccccc ccccc ccccc ccccc
%c cc cc ccc ccc cccc cccc cccc cccc ccccc ccccc ccccc ccccc
%f  0.0000000  0.000000000  0.00000000000  0.000000000000000
%f  0.0000000  0.000000000  0.00000000000  0.000000000000000
%i    0    0    0    0      0      0      0      0         0
%i    0    0    0    0      0      0      0      0         0
/* CCCCCCCCCCCCCCCCCCCCCCCCCCCCCCCCCCCCCCCCCCCCCCCCCCCCCCCCCCCCCCCCCCCCCCCCCCCCC
/* C                             GFZ RSO-ORBIT                                 C
/* C DOI: https://doi.org/10.5880/GFZ_ORBIT/RSO/L65_G_v02                      C
/* C                                                                           C
/* C DORIS        RMS: not applicable                                          C
/* C GNSS-E Code  RMS: not applicable                                          C
/* C GNSS-E Phase RMS: not applicable                                          C
/* C GNSS-G Code  RMS:  50.206 [cm]   Obs.acc.:     14610 Obs.eli.:       973  C
/* C GNSS-G Phase RMS:   4.843 [mm]   Obs.acc.:     14610 Obs.eli.:       973  C
/* C SLR          RMS:   2.021 [cm]   Obs.acc.:        27 Obs.eli.:         0  C
/* C                                                                           C
/* CCCCCCCCCCCCCCCCCCCCCCCCCCCCCCCCCCCCCCCCCCCCCCCCCCCCCCCCCCCCCCCCCCCCCCCCCCCCC
*  2023  2 19  4 48  0.00000000
PL65   3875.463128  -2676.049182  -5012.597980   2436.001355
VL65 -46356.668611  30203.517223 -52165.382715 999999.999999
*  2023  2 19  4 48 30.00000000
PL65   3734.497542  -2583.683074  -5166.301399   2436.471891
VL65 -47610.866577  31369.116863 -50294.275928 999999.999999
*  2023  2 19  4 49  0.00000000
PL65   3589.855646  -2487.863851  -5314.308971   2436.941686
VL65 -48807.348862  32505.347411 -48368.506006 999999.999999
*  2023  2 19  4 49 30.00000000
PL65   3441.712293  -2388.681824  -5456.459922   2437.410869
VL65 -49944.989644  33610.744387 -46390.225386 999999.999999
*  2023  2 19  4 50  0.00000000
PL65   3290.245606  -2286.231653  -5592.600016   2437.880496
VL65 -51022.735261  34683.873565 -44361.639519 999999.999999
*  2023  2 19  4 50 30.00000000
PL65   3135.636761  -2180.612253  -5722.581707   2438.350548
VL65 -52039.603980  35723.333475 -42285.003489 999999.999999
*  2023  2 19  4 51  0.00000000
PL65   2978.069771  -2071.926691  -5846.264288   2438.820784
VL65 -52994.685941  36727.756184 -40162.620414 999999.999999
*  2023  2 19  4 51 30.00000000
PL65   2817.731270  -1960.282087  -5963.514031   2439.291272
VL65 -53887.145712  37695.808357 -37996.840036 999999.999999
*  2023  2 19  4 52  0.00000000
PL65   2654.810281  -1845.789508  -6074.204323   2439.761624
VL65 -54716.223648  38626.193909 -35790.055390 999999.999999
*  2023  2 19  4 52 30.00000000
PL65   2489.497996  -1728.563848  -6178.215791   2440.231857
VL65 -55481.236207  39517.656624 -33544.699161 999999.999999
*  2023  2 19  4 53  0.00000000
PL65   2321.987539  -1608.723708  -6275.436414   2440.700962
VL65 -56181.576049  40368.981632 -31263.239488 999999.999999
*  2023  2 19  4 53 30.00000000
PL65   2152.473747  -1486.391271  -6365.761624   2441.168550
VL65 -56816.711152  41178.995669 -28948.176680 999999.999999
*  2023  2 19  4 54  0.00000000
PL65   1981.152937  -1361.692177  -6449.094400   2441.635545
VL65 -57386.184428  41946.567673 -26602.041276 999999.999999
*  2023  2 19  4 54 30.00000000
PL65   1808.222686  -1234.755396  -6525.345356   2442.103638
VL65 -57889.613899  42670.610032 -24227.391196 999999.999999
*  2023  2 19  4 55  0.00000000
PL65   1633.881608  -1105.713092  -6594.432814   2442.572796
VL65 -58326.691405  43350.079152 -21826.808389 999999.999999
*  2023  2 19  4 55 30.00000000
PL65   1458.329129   -974.700495  -6656.282878   2443.042356
VL65 -58697.180798  43983.975671 -19402.898776 999999.999999
*  2023  2 19  4 56  0.00000000
PL65   1281.765275   -841.855765  -6710.829509   2443.512218
VL65 -59000.920318  44571.347156 -16958.292840 999999.999999
*  2023  2 19  4 56 30.00000000
PL65   1104.390444   -707.319842  -6758.014588   2443.982378
VL65 -59237.825412  45111.290942 -14495.639906 999999.999999
*  2023  2 19  4 57  0.00000000
PL65    926.405170   -571.236301  -6797.787963   2444.452698
VL65 -59407.886201  45602.954064 -12017.601929 999999.999999
*  2023  2 19  4 57 30.00000000
PL65    748.009912   -433.751203  -6830.107488   2444.923016
VL65 -59511.164104  46045.532831  -9526.852305 999999.999999
*  2023  2 19  4 58  0.00000000
PL65    569.404838   -295.012944  -6854.939051   2445.393271
VL65 -59547.791058  46438.273759  -7026.076307 999999.999999
*  2023  2 19  4 58 30.00000000
PL65    390.789615   -155.172101  -6872.256615   2445.863510
VL65 -59517.970841  46780.475911  -4517.969735 999999.999999
*  2023  2 19  4 59  0.00000000
PL65    212.363187    -14.381276  -6882.042240   2446.333914
VL65 -59421.979727  47071.492568  -2005.234137 999999.999999
*  2023  2 19  4 59 30.00000000
PL65     34.323563    127.205074  -6884.286094   2446.804224
VL65 -59260.164708  47310.730899    509.426898 999999.999999
*  2023  2 19  5  0  0.00000000
PL65   -143.132392    269.430791  -6878.986458   2447.274616
VL65 -59032.942412  47497.652286   3023.308352 999999.999999
*  2023  2 19  5  0 30.00000000
PL65   -319.809169    412.138186  -6866.149728   2447.745021
VL65 -58740.799450  47631.774090   5533.705683 999999.999999
*  2023  2 19  5  1  0.00000000
PL65   -495.512822    555.168208  -6845.790409   2448.215772
VL65 -58384.292008  47712.670699   8037.918149 999999.999999
*  2023  2 19  5  1 30.00000000
PL65   -670.051179    698.360616  -6817.931099   2448.686437
VL65 -57964.045190  47739.974548  10533.251608 999999.999999
*  2023  2 19  5  2  0.00000000
PL65   -843.234045    841.554153  -6782.602462   2449.157005
VL65 -57480.752216  47713.377207  13017.022481 999999.999999
*  2023  2 19  5  2 30.00000000
PL65  -1014.873403    984.586726  -6739.843196   2449.627402
VL65 -56935.172287  47632.628958  15486.561560 999999.999999
*  2023  2 19  5  3  0.00000000
PL65  -1184.783612   1127.295582  -6689.699979   2450.097763
VL65 -56328.128238  47497.538317  17939.215467 999999.999999
*  2023  2 19  5  3 30.00000000
PL65  -1352.781592   1269.517479  -6632.227426   2450.568114
VL65 -55660.505243  47307.972623  20372.347381 999999.999999
*  2023  2 19  5  4  0.00000000
PL65  -1518.687010   1411.088868  -6567.488036   2451.038476
VL65 -54933.250147  47063.858776  22783.338376 999999.999999
*  2023  2 19  5  4 30.00000000
PL65  -1682.322467   1551.846069  -6495.552136   2451.508819
VL65 -54147.371398  46765.183861  25169.589266 999999.999999
*  2023  2 19  5  5  0.00000000
PL65  -1843.513682   1691.625456  -6416.497818   2451.979131
VL65 -53303.938794  46411.996244  27528.523132 999999.999999
*  2023  2 19  5  5 30.00000000
PL65  -2002.089674   1830.263642  -6330.410867   2452.449431
VL65 -52404.082793  46004.407195  29857.588302 999999.999999
*  2023  2 19  5  6  0.00000000
PL65  -2157.882944   1967.597671  -6237.384680   2452.919790
VL65 -51448.993647  45542.591650  32154.262814 999999.999999
*  2023  2 19  5  6 30.00000000
PL65  -2310.729648   2103.465201  -6137.520170   2453.390103
VL65 -50439.918563  45026.787001  34416.058836 999999.999999
*  2023  2 19  5  7  0.00000000
PL65  -2460.469768   2237.704700  -6030.925660   2453.860350
VL65 -49378.158245  44457.291864  36640.523574 999999.999999
*  2023  2 19  5  7 30.00000000
PL65  -2606.947264   2370.155620  -5917.716779   2454.330668
VL65 -48265.066141  43834.466609  38825.238792 999999.999999
*  2023  2 19  5  8  0.00000000
PL65  -2750.010238   2500.658591  -5798.016360   2454.800877
VL65 -47102.049156  43158.734778  40967.822782 999999.999999
*  2023  2 19  5  8 30.00000000
PL65  -2889.511092   2629.055607  -5671.954317   2455.271078
VL65 -45890.566997  42430.583706  43065.934233 999999.999999
*  2023  2 19  5  9  0.00000000
PL65  -3025.306684   2755.190223  -5539.667526   2455.741083
VL65 -44632.130309  41650.564261  45117.275655 999999.999999
*  2023  2 19  5  9 30.00000000
PL65  -3157.258478   2878.907737  -5401.299685   2456.210989
VL65 -43328.298826  40819.290463  47119.596043 999999.999999
*  2023  2 19  5 10  0.00000000
PL65  -3285.232688   3000.055386  -5257.001174   2456.681230
VL65 -41980.679734  39937.439127  49070.693385 999999.999999
*  2023  2 19  5 10 30.00000000
PL65  -3409.100420   3118.482531  -5106.928900   2457.151512
VL65 -40590.925944  39005.749574  50968.417293 999999.999999
*  2023  2 19  5 11  0.00000000
PL65  -3528.737804   3234.040844  -4951.246142   2457.621628
VL65 -39160.734056  38025.023225  52810.671695 999999.999999
*  2023  2 19  5 11 30.00000000
PL65  -3644.026123   3346.584495  -4790.122381   2458.091797
VL65 -37691.842158  36996.122997  54595.417298 999999.999999
*  2023  2 19  5 12  0.00000000
PL65  -3754.851933   3455.970330  -4623.733129   2458.561883
VL65 -36186.027756  35919.972685  56320.673809 999999.999999
*  2023  2 19  5 12 30.00000000
PL65  -3861.107181   3562.058063  -4452.259748   2459.032056
VL65 -34645.105728  34797.556320  57984.522305 999999.999999
*  2023  2 19  5 13  0.00000000
PL65  -3962.689309   3664.710444  -4275.889261   2459.502531
VL65 -33070.925809  33629.917273  59585.107672 999999.999999
EOF
